[{"OBJECT_NAME":"IRIDIUM 100","OBJECT_ID":"2017-061B","EPOCH":"2026-03-09T22:53:38.663808","MEAN_MOTION":14.34217595,"ECCENTRICITY":0.00021334,"INCLINATION":86.3915,"RA_OF_ASC_NODE":66.6702,"ARG_OF_PERICENTER":88.8283,"MEAN_ANOMALY":271.3157,"EPHEMERIS_TYPE":0,"CLASSIFICATION_TYPE":"U","NORAD_CAT_ID":42956,"ELEMENT_SET_NO":999,"REV_AT_EPOCH":44055,"BSTAR":3.731497e-6,"MEAN_MOTION_DOT":3.0e-7,"MEAN_MOTION_DDOT":0},{"OBJECT_NAME":"COSMOS 252 DEB","OBJECT_ID":"1968-097DV","EPOCH":"2026-03-09T06:51:51.124896","MEAN_MOTION":13.73038958,"ECCENTRICITY":0.05679066,"INCLINATION":62.4087,"RA_OF_ASC_NODE":319.2034,"ARG_OF_PERICENTER":227.0183,"MEAN_ANOMALY":128.1904,"EPHEMERIS_TYPE":0,"CLASSIFICATION_TYPE":"U","NORAD_CAT_ID":9973,"ELEMENT_SET_NO":999,"REV_AT_EPOCH":1707,"BSTAR":0.00062015301,"MEAN_MOTION_DOT":1.742e-5,"MEAN_MOTION_DDOT":0}]
